     2.11           N: GPS NAV DATA                         RINEX VERSION / TYPE
teqc  2018Dec12     gpsops              20220417 01:04:00UTCPGM / RUN BY / DATE
Linux 2.6.32-573.12.1.x86_64|x86_64|gcc -static|Linux 64|=+ COMMENT
CHPI                                    MARKER NAME         COMMENT
41609M003                               MARKER NUMBER       COMMENT
4164613.9484 -4162456.9866 -2445028.7316                    COMMENT
                                                            COMMENT
This data is provided as a public service by NASA/JPL.      COMMENT
No warranty is expressed or implied regarding suitability   COMMENT
for use.  For further information, contact:                 COMMENT
Dave Stowers, NASA/JPL m/s 238-600                          COMMENT
4800 Oak Grove Drive, Pasadena CA 91109 USA                 COMMENT
                                                            END OF HEADER
15 22  4 16  6  0  0.0-6.857281550765D-05 2.955857780762D-12 0.000000000000D+00
    1.080000000000D+02-7.046875000000D+01 5.814885070446D-09 1.229689024638D+00
   -3.628432750702D-06 1.399387733545D-02 6.791204214096D-06 5.153765295029D+03
    5.400000000000D+05-3.147870302200D-07-9.600187830586D-01 1.080334186554D-07
    9.299533368835D-01 2.390312500000D+02 1.085299273540D+00-8.915728518737D-09
   -6.239545616406D-10 1.000000000000D+00 2.205000000000D+03 0.000000000000D+00
    2.000000000000D+00 0.000000000000D+00-1.071020960808D-08 1.080000000000D+02
    5.328180000000D+05 4.000000000000D+00
18 22  4 16  6  0  0.0 1.943279057741D-04-9.436007530894D-12 0.000000000000D+00
    1.900000000000D+01 6.625000000000D+00 3.960879272235D-09 2.756918479235D-01
    4.116445779800D-07 2.206101315096D-03 1.403316855431D-05 5.153614561081D+03
    5.400000000000D+05 4.097819328308D-08-2.908022447927D+00 1.862645149231D-08
    9.715805157597D-01 1.145312500000D+02 3.059068803980D+00-7.744251150574D-09
    4.443042213399D-10 1.000000000000D+00 2.205000000000D+03 0.000000000000D+00
    2.000000000000D+00 0.000000000000D+00-8.381903171539D-09 2.750000000000D+02
    5.328420000000D+05 4.000000000000D+00
31 22  4 16  6  0  0.0-1.736157573760D-04-1.591615728103D-12 0.000000000000D+00
    9.300000000000D+01 6.793750000000D+01 4.283749863948D-09-1.141425774359D+00
    3.460794687271D-06 1.043492276222D-02 1.332163810730D-05 5.153729043961D+03
    5.400000000000D+05 2.179294824600D-07 2.374264869776D-01-1.415610313416D-07
    9.556194694781D-01 1.200625000000D+02 3.856917114136D-01-7.885328455581D-09
    6.393123442110D-11 1.000000000000D+00 2.205000000000D+03 0.000000000000D+00
    2.000000000000D+00 0.000000000000D+00-1.350417733192D-08 9.300000000000D+01
    5.357580000000D+05 4.000000000000D+00
23 22  4 16  6  0  0.0-1.528346911073D-05-2.842170943040D-12 0.000000000000D+00
    5.800000000000D+01 5.046875000000D+01 4.960563770249D-09-7.646982207503D-01
    2.648681402206D-06 2.062599756755D-03 4.902482032776D-06 5.153697612762D+03
    5.400000000000D+05 1.490116119385D-08-1.908751243837D+00-1.862645149231D-09
    9.678488516581D-01 2.882187500000D+02 3.003767618635D+00-8.394992542279D-09
    5.118070331030D-10 1.000000000000D+00 2.205000000000D+03 0.000000000000D+00
    2.000000000000D+00 0.000000000000D+00-8.381903171539D-09 5.700000000000D+02
    5.386560000000D+05 4.000000000000D+00
25 22  4 16  8  0  0.0 3.126137889922D-04 5.002220859751D-12 0.000000000000D+00
    9.300000000000D+01 6.909375000000D+01 5.090926343231D-09-5.484805685658D-01
    3.697350621223D-06 1.055937132332D-02 2.758577466011D-06 5.153681629181D+03
    5.472000000000D+05 3.166496753693D-08 1.254489547142D+00 1.415610313416D-07
    9.569609521905D-01 3.230000000000D+02 9.983137915023D-01-8.805009621136D-09
    2.142946405177D-10 1.000000000000D+00 2.205000000000D+03 0.000000000000D+00
    2.000000000000D+00 0.000000000000D+00 5.587935447693D-09 9.300000000000D+01
    5.400180000000D+05 4.000000000000D+00
18 22  4 16  8  0  0.0 1.942594535649D-04-9.436007530894D-12 0.000000000000D+00
    2.000000000000D+01 6.437500000000D+00 3.884447517117D-09 1.326008482856D+00
    2.831220626831D-07 2.206442062743D-03 1.375935971737D-05 5.153614688873D+03
    5.472000000000D+05-5.401670932770D-08-2.908077510701D+00 1.005828380585D-07
    9.715837868446D-01 1.205937500000D+02 3.058964123414D+00-7.664247818114D-09
    3.764442518427D-10 1.000000000000D+00 2.205000000000D+03 0.000000000000D+00
    2.000000000000D+00 0.000000000000D+00-8.381903171539D-09 2.760000000000D+02
    5.400180000000D+05 4.000000000000D+00
12 22  4 16  8  0  0.0-2.011181786656D-04-5.798028723802D-12 0.000000000000D+00
    8.700000000000D+01 5.606250000000D+01 4.760198281365D-09-2.538098308954D-01
    2.950429916382D-06 8.720966638066D-03 2.564862370491D-06 5.153562133789D+03
    5.472000000000D+05-3.911554813385D-08 1.331989344006D+00 1.434236764908D-07
    9.694390538507D-01 3.353125000000D+02 1.272618253270D+00-8.600358239442D-09
    1.828647599084D-10 1.000000000000D+00 2.205000000000D+03 0.000000000000D+00
    2.000000000000D+00 0.000000000000D+00-1.257285475731D-08 8.700000000000D+01
    5.400180000000D+05 4.000000000000D+00
29 22  4 16  8  0  0.0-5.035921931267D-04-4.206412995700D-12 0.000000000000D+00
    3.800000000000D+01-1.053437500000D+02 4.068740907962D-09-2.892340027560D+00
   -5.479902029037D-06 2.052157768048D-03 7.497146725655D-06 5.153720232010D+03
    5.472000000000D+05 5.587935447693D-09 2.383478019164D+00 3.725290298462D-08
    9.811787007970D-01 2.457812500000D+02 2.233638084838D+00-7.952474109610D-09
   -5.078782980268D-10 1.000000000000D+00 2.205000000000D+03 0.000000000000D+00
    2.000000000000D+00 0.000000000000D+00-1.024454832077D-08 3.800000000000D+01
    5.400180000000D+05 4.000000000000D+00
 5 22  4 16  8  0  0.0-7.847975939512D-05-1.364242052659D-12 0.000000000000D+00
    1.100000000000D+01 5.528125000000D+01 5.038781314038D-09-2.581103760006D+00
    2.568587660789D-06 5.907768732868D-03 4.738569259644D-06 5.153696338654D+03
    5.472000000000D+05 1.322478055954D-07-1.922087442040D+00-2.980232238770D-08
    9.599849179680D-01 2.860312500000D+02 1.011009470043D+00-8.364634134872D-09
    5.310935507496D-10 1.000000000000D+00 2.205000000000D+03 0.000000000000D+00
    2.000000000000D+00 0.000000000000D+00-1.117587089539D-08 1.100000000000D+01
    5.400180000000D+05 4.000000000000D+00
20 22  4 16  8  0  0.0 5.158050917089D-04-2.273736754432D-13 0.000000000000D+00
    2.800000000000D+01 6.525000000000D+01 5.315221400306D-09 2.044930370141D+00
    3.278255462646D-06 4.867728450336D-03 5.709007382393D-06 5.153548011780D+03
    5.472000000000D+05-4.097819328308D-08-2.037241162997D+00 1.601874828339D-07
    9.423394941424D-01 2.555000000000D+02-3.124734583978D+00-8.587857718745D-09
    5.453798601174D-10 1.000000000000D+00 2.205000000000D+03 0.000000000000D+00
    2.000000000000D+00 0.000000000000D+00-8.381903171539D-09 2.800000000000D+01
    5.400180000000D+05 4.000000000000D+00
31 22  4 16  8  0  0.0-1.736273989081D-04-1.591615728103D-12 0.000000000000D+00
    9.500000000000D+01 7.118750000000D+01 4.430184534968D-09-9.129315111476D-02
    3.667548298836D-06 1.043520821258D-02 1.308135688305D-05 5.153729318619D+03
    5.472000000000D+05 1.043081283569D-07 2.373692415303D-01 9.872019290924D-08
    9.556186019677D-01 1.230937500000D+02 3.857049815435D-01-8.124266979758D-09
   -8.928943354902D-12 1.000000000000D+00 2.205000000000D+03 0.000000000000D+00
    2.000000000000D+00 0.000000000000D+00-1.350417733192D-08 9.500000000000D+01
    5.400180000000D+05 4.000000000000D+00
 2 22  4 16  8  0  0.0-6.531286053360D-04-2.273736754432D-13 0.000000000000D+00
    6.500000000000D+01-2.575000000000D+01 4.008381250883D-09 1.184679535275D+00
   -1.415610313416D-06 2.049038838595D-02 1.265853643417D-05 5.153651483536D+03
    5.472000000000D+05-1.545995473862D-07-3.005450705886D+00-5.122274160385D-07
    9.659951267173D-01 1.398125000000D+02-1.424129154570D+00-7.953902740547D-09
    3.017982853957D-10 1.000000000000D+00 2.205000000000D+03 0.000000000000D+00
    2.000000000000D+00 0.000000000000D+00-1.769512891769D-08 6.500000000000D+01
    5.400180000000D+05 4.000000000000D+00
23 22  4 16  8  0  0.0-1.530395820737D-05-2.842170943040D-12 0.000000000000D+00
    5.900000000000D+01 4.834375000000D+01 4.909847371994D-09 2.855196291757D-01
    2.583488821983D-06 2.063048421405D-03 4.842877388000D-06 5.153698486328D+03
    5.472000000000D+05 3.911554813385D-08-1.908811655039D+00-2.421438694000D-08
    9.678526962068D-01 2.906875000000D+02 3.003718850798D+00-8.363562661670D-09
    5.182358723185D-10 1.000000000000D+00 2.205000000000D+03 0.000000000000D+00
    2.000000000000D+00 0.000000000000D+00-8.381903171539D-09 5.710000000000D+02
    5.400180000000D+05 4.000000000000D+00
11 22  4 16  8  0  0.0-3.929715603590D-05 6.934897101019D-12 0.000000000000D+00
    5.300000000000D+01 6.406250000000D+00 4.071598169835D-09 3.056013473239D+00
    5.289912223816D-07 2.849296433851D-04 1.250579953194D-05 5.153568286896D+03
    5.472000000000D+05-3.911554813385D-08-2.872661807381D+00-3.166496753693D-08
    9.629162898085D-01 1.359062500000D+02 2.939333895078D+00-7.815682697413D-09
    4.296607542379D-10 1.000000000000D+00 2.205000000000D+03 0.000000000000D+00
    2.000000000000D+00 6.300000000000D+01-8.847564458847D-09 8.210000000000D+02
    5.400180000000D+05 4.000000000000D+00
24 22  4 16  8  0  0.0 2.558580599725D-04-5.229594535194D-12 0.000000000000D+00
    2.600000000000D+01 4.700000000000D+01 4.928419574172D-09 1.339065714285D+00
    2.615153789520D-06 1.241735625081D-02 1.314468681812D-05 5.153700819016D+03
    5.472000000000D+05-2.514570951462D-07 1.353475948906D-01 1.490116119385D-07
    9.348976825382D-01 1.153750000000D+02 8.126578906917D-01-8.298917111780D-09
   -1.553636143753D-10 1.000000000000D+00 2.205000000000D+03 0.000000000000D+00
    2.000000000000D+00 0.000000000000D+00 2.328306436539D-09 2.600000000000D+01
    5.400180000000D+05 4.000000000000D+00
